[{"OBJECT_NAME":"STARLINK-30795","OBJECT_ID":"2023-162A","EPOCH":"2026-03-09T22:00:01.999584","MEAN_MOTION":15.26752107,"ECCENTRICITY":0.00012389,"INCLINATION":42.9999,"RA_OF_ASC_NODE":130.7306,"ARG_OF_PERICENTER":244.8667,"MEAN_ANOMALY":252.8095,"EPHEMERIS_TYPE":0,"CLASSIFICATION_TYPE":"U","NORAD_CAT_ID":58118,"ELEMENT_SET_NO":999,"REV_AT_EPOCH":567,"BSTAR":7.5123484e-5,"MEAN_MOTION_DOT":1.757e-5,"MEAN_MOTION_DDOT":0},{"OBJECT_NAME":"FLOCK 4G-22","OBJECT_ID":"2025-009AN","EPOCH":"2026-03-09T22:51:40.689792","MEAN_MOTION":15.2720903,"ECCENTRICITY":8.959e-5,"INCLINATION":97.4046,"RA_OF_ASC_NODE":151.5884,"ARG_OF_PERICENTER":284.1963,"MEAN_ANOMALY":75.9176,"EPHEMERIS_TYPE":0,"CLASSIFICATION_TYPE":"U","NORAD_CAT_ID":62645,"ELEMENT_SET_NO":999,"REV_AT_EPOCH":6376,"BSTAR":0.00049035383,"MEAN_MOTION_DOT":0.00013013,"MEAN_MOTION_DDOT":0}]
